[{"OBJECT_NAME":"KUIPER-00090","OBJECT_ID":"2025-151V","EPOCH":"2026-03-09T21:15:17.323488","MEAN_MOTION":14.7992851,"ECCENTRICITY":6.399e-5,"INCLINATION":51.8979,"RA_OF_ASC_NODE":277.2553,"ARG_OF_PERICENTER":106.9589,"MEAN_ANOMALY":253.1443,"EPHEMERIS_TYPE":0,"CLASSIFICATION_TYPE":"U","NORAD_CAT_ID":64835,"ELEMENT_SET_NO":999,"REV_AT_EPOCH":3564,"BSTAR":9.343077e-6,"MEAN_MOTION_DOT":-1.5e-6,"MEAN_MOTION_DDOT":0},{"OBJECT_NAME":"SPHEREX DEB","OBJECT_ID":"2025-047F","EPOCH":"2026-03-09T11:23:37.891104","MEAN_MOTION":14.7961656,"ECCENTRICITY":0.00077862,"INCLINATION":97.953,"RA_OF_ASC_NODE":256.7503,"ARG_OF_PERICENTER":133.7835,"MEAN_ANOMALY":226.4022,"EPHEMERIS_TYPE":0,"CLASSIFICATION_TYPE":"U","NORAD_CAT_ID":63332,"ELEMENT_SET_NO":999,"REV_AT_EPOCH":5236,"BSTAR":0.0012576559,"MEAN_MOTION_DOT":9.39e-5,"MEAN_MOTION_DDOT":0}]
